{"type": "FeatureCollection", "features": [ {"type": "Feature", "properties": {"norad_id": 66817, "name": "STARLINK-35995", "group": "last-30-days", "lat": -26.73923559973792, "lon": -178.79057423184167, "alt_km": 363.71644094250223, "timestamp": "2025-12-18T23:35:47.781885+00:00", "meta": {"OBJECT_NAME": "STARLINK-35995", "OBJECT_ID": "2025-278AC", "EPOCH": "2025-12-18T16:00:00.999936", "MEAN_MOTION": 15.70266558, "ECCENTRICITY": 0.00017747, "INCLINATION": 42.9988, "RA_OF_ASC_NODE": 215.8447, "ARG_OF_PERICENTER": 260.7974, "MEAN_ANOMALY": 67.3029, "EPHEMERIS_TYPE": 0, "CLASSIFICATION_TYPE": "U", "NORAD_CAT_ID": 66817, "ELEMENT_SET_NO": 999, "REV_AT_EPOCH": 391, "BSTAR": -0.017350855, "MEAN_MOTION_DOT": -0.01926295, "MEAN_MOTION_DDOT": 0}, "tle": {"line1": "1 66817U 25278AC  25352.66667824 -.01926295  00000+0 -17351-1 0  9997", "line2": "2 66817  42.9988 215.8447 0001774 260.7974  67.3029 15.70266558  3910"}}, "geometry": {"type": "Point", "coordinates": [-178.79057423184167, -26.73923559973792]}}, {"type": "Feature", "properties": {"norad_id": 66818, "name": "STARLINK-35994", "group": "last-30-days", "lat": -27.8273893779023, "lon": 179.4391008416313, "alt_km": 363.8140460181112, "timestamp": "2025-12-18T23:35:47.781896+00:00", "meta": {"OBJECT_NAME": "STARLINK-35994", "OBJECT_ID": "2025-278AD", "EPOCH": "2025-12-18T16:00:00.999936", "MEAN_MOTION": 15.70269701, "ECCENTRICITY": 0.00016884, "INCLINATION": 42.9989, "RA_OF_ASC_NODE": 215.8498, "ARG_OF_PERICENTER": 259.2485, "MEAN_ANOMALY": 66.9307, "EPHEMERIS_TYPE": 0, "CLASSIFICATION_TYPE": "U", "NORAD_CAT_ID": 66818, "ELEMENT_SET_NO": 999, "REV_AT_EPOCH": 391, "BSTAR": -0.017354048, "MEAN_MOTION_DOT": -0.01926768, "MEAN_MOTION_DDOT": 0}, "tle": {"line1": "1 66818U 25278AD  25352.66667824 -.01926768  00000+0 -17354-1 0  9996", "line2": "2 66818  42.9989 215.8498 0001688 259.2485  66.9307 15.70269701  3919"}}, "geometry": {"type": "Point", "coordinates": [179.4391008416313, -27.8273893779023]}}, {"type": "Feature", "properties": {"norad_id": 66819, "name": "STARLINK-35989", "group": "last-30-days", "lat": -25.629307658080183, "lon": -177.05445126476684, "alt_km": 363.66964659913174, "timestamp": "2025-12-18T23:35:47.781908+00:00", "meta": {"OBJECT_NAME": "STARLINK-35989", "OBJECT_ID": "2025-278AE", "EPOCH": "2025-12-18T14:00:03.000384", "MEAN_MOTION": 15.70606669, "ECCENTRICITY": 0.00015004, "INCLINATION": 42.9992, "RA_OF_ASC_NODE": 216.3407, "ARG_OF_PERICENTER": 255.8865, "MEAN_ANOMALY": 322.5608, "EPHEMERIS_TYPE": 0, "CLASSIFICATION_TYPE": "U", "NORAD_CAT_ID": 66819, "ELEMENT_SET_NO": 999, "REV_AT_EPOCH": 389, "BSTAR": -0.016962808, "MEAN_MOTION_DOT": -0.01912089, "MEAN_MOTION_DDOT": 0}, "tle": {"line1": "1 66819U 25278AE  25352.58336806 -.01912089  00000+0 -16963-1 0  9997", "line2": "2 66819  42.9992 216.3407 0001500 255.8865 322.5608 15.70606669  3897"}}, "geometry": {"type": "Point", "coordinates": [-177.05445126476684, -25.629307658080183]}}, {"type": "Feature", "properties": {"norad_id": 66820, "name": "KOMPSAT-7", "group": "last-30-days", "lat": -13.25358214775403, "lon": 116.92178795357357, "alt_km": 566.3570752883643, "timestamp": "2025-12-18T23:35:47.781919+00:00", "meta": {"OBJECT_NAME": "KOMPSAT-7", "OBJECT_ID": "2025-279A", "EPOCH": "2025-12-15T00:17:19.244256", "MEAN_MOTION": 15.0015594, "ECCENTRICITY": 0.00093948, "INCLINATION": 97.641, "RA_OF_ASC_NODE": 294.8339, "ARG_OF_PERICENTER": 252.0315, "MEAN_ANOMALY": 107.9885, "EPHEMERIS_TYPE": 0, "CLASSIFICATION_TYPE": "U", "NORAD_CAT_ID": 66820, "ELEMENT_SET_NO": 999, "REV_AT_EPOCH": 199, "BSTAR": 0.00025788518, "MEAN_MOTION_DOT": 3.163e-05, "MEAN_MOTION_DDOT": 0}, "tle": {"line1": "1 66820U 25279A   25349.01202829  .00003163  00000+0  25789-3 0  9990", "line2": "2 66820  97.6410 294.8339 0009394 252.0315 107.9885 15.00155940  1999"}}, "geometry": {"type": "Point", "coordinates": [116.92178795357357, -13.25358214775403]}}, {"type": "Feature", "properties": {"norad_id": 66821, "name": "STARLINK-35966", "group": "last-30-days", "lat": -29.349545737884032, "lon": 169.5017774395001, "alt_km": 404.88982078293975, "timestamp": "2025-12-18T23:35:47.781929+00:00", "meta": {"OBJECT_NAME": "STARLINK-35966", "OBJECT_ID": "2025-280A", "EPOCH": "2025-12-18T14:00:03.000384", "MEAN_MOTION": 15.57280218, "ECCENTRICITY": 0.00032771, "INCLINATION": 69.9998, "RA_OF_ASC_NODE": 182.4214, "ARG_OF_PERICENTER": 267.2623, "MEAN_ANOMALY": 341.8214, "EPHEMERIS_TYPE": 0, "CLASSIFICATION_TYPE": "U", "NORAD_CAT_ID": 66821, "ELEMENT_SET_NO": 999, "REV_AT_EPOCH": 383, "BSTAR": -0.030931779, "MEAN_MOTION_DOT": -0.01989968, "MEAN_MOTION_DDOT": 0}, "tle": {"line1": "1 66821U 25280A   25352.58336806 -.01989968  00000+0 -30932-1 0  9995", "line2": "2 66821  69.9998 182.4214 0003277 267.2623 341.8214 15.57280218  3830"}}, "geometry": {"type": "Point", "coordinates": [169.5017774395001, -29.349545737884032]}}, {"type": "Feature", "properties": {"norad_id": 66822, "name": "STARLINK-35958", "group": "last-30-days", "lat": -27.586039748746263, "lon": 170.3481265790752, "alt_km": 404.8667026981602, "timestamp": "2025-12-18T23:35:47.781939+00:00", "meta": {"OBJECT_NAME": "STARLINK-35958", "OBJECT_ID": "2025-280B", "EPOCH": "2025-12-18T16:00:00.999936", "MEAN_MOTION": 15.56929292, "ECCENTRICITY": 0.00038857, "INCLINATION": 69.9996, "RA_OF_ASC_NODE": 182.1902, "ARG_OF_PERICENTER": 268.0297, "MEAN_ANOMALY": 89.8244, "EPHEMERIS_TYPE": 0, "CLASSIFICATION_TYPE": "U", "NORAD_CAT_ID": 66822, "ELEMENT_SET_NO": 999, "REV_AT_EPOCH": 385, "BSTAR": -0.032061845, "MEAN_MOTION_DOT": -0.02030439, "MEAN_MOTION_DDOT": 0}, "tle": {"line1": "1 66822U 25280B   25352.66667824 -.02030439  00000+0 -32062-1 0  9999", "line2": "2 66822  69.9996 182.1902 0003885 268.0297  89.8244 15.56929292  3856"}}, "geometry": {"type": "Point", "coordinates": [170.3481265790752, -27.586039748746263]}}, {"type": "Feature", "properties": {"norad_id": 66823, "name": "STARLINK-35957", "group": "last-30-days", "lat": -25.81645053180246, "lon": 171.1674322630634, "alt_km": 404.8519803806985, "timestamp": "2025-12-18T23:35:47.781949+00:00", "meta": {"OBJECT_NAME": "STARLINK-35957", "OBJECT_ID": "2025-280C", "EPOCH": "2025-12-18T14:00:03.000384", "MEAN_MOTION": 15.5728221, "ECCENTRICITY": 0.00032656, "INCLINATION": 69.9996, "RA_OF_ASC_NODE": 182.4175, "ARG_OF_PERICENTER": 265.5088, "MEAN_ANOMALY": 347.4092, "EPHEMERIS_TYPE": 0, "CLASSIFICATION_TYPE": "U", "NORAD_CAT_ID": 66823, "ELEMENT_SET_NO": 999, "REV_AT_EPOCH": 383, "BSTAR": -0.031047234, "MEAN_MOTION_DOT": -0.01996601, "MEAN_MOTION_DDOT": 0}, "tle": {"line1": "1 66823U 25280C   25352.58336806 -.01996601  00000+0 -31047-1 0  9997", "line2": "2 66823  69.9996 182.4175 0003265 265.5088 347.4092 15.57282210  3839"}}, "geometry": {"type": "Point", "coordinates": [171.1674322630634, -25.81645053180246]}}, {"type": "Feature", "properties": {"norad_id": 66824, "name": "STARLINK-35896", "group": "last-30-days", "lat": -24.042575057838814, "lon": 171.96214257770748, "alt_km": 404.87034087700977, "timestamp": "2025-12-18T23:35:47.781959+00:00", "meta": {"OBJECT_NAME": "STARLINK-35896", "OBJECT_ID": "2025-280D", "EPOCH": "2025-12-18T14:00:03.000384", "MEAN_MOTION": 15.57280477, "ECCENTRICITY": 0.0003221, "INCLINATION": 69.9992, "RA_OF_ASC_NODE": 182.4151, "ARG_OF_PERICENTER": 263.3789, "MEAN_ANOMALY": 351.4558, "EPHEMERIS_TYPE": 0, "CLASSIFICATION_TYPE": "U", "NORAD_CAT_ID": 66824, "ELEMENT_SET_NO": 999, "REV_AT_EPOCH": 383, "BSTAR": -0.030990049, "MEAN_MOTION_DOT": -0.01993225, "MEAN_MOTION_DDOT": 0}, "tle": {"line1": "1 66824U 25280D   25352.58336806 -.01993225  00000+0 -30990-1 0  9993", "line2": "2 66824  69.9992 182.4151 0003221 263.3789 351.4558 15.57280477  3831"}}, "geometry": {"type": "Point", "coordinates": [171.96214257770748, -24.042575057838814]}}, {"type": "Feature", "properties": {"norad_id": 66825, "name": "STARLINK-35476", "group": "last-30-days", "lat": -22.265145699900838, "lon": 172.73509567030794, "alt_km": 404.6871123282699, "timestamp": "2025-12-18T23:35:47.782006+00:00", "meta": {"OBJECT_NAME": "STARLINK-35476", "OBJECT_ID": "2025-280E", "EPOCH": "2025-12-18T16:00:00.999936", "MEAN_MOTION": 15.56930885, "ECCENTRICITY": 0.00038217, "INCLINATION": 69.9994, "RA_OF_ASC_NODE": 182.1829, "ARG_OF_PERICENTER": 268.8155, "MEAN_ANOMALY": 94.7891, "EPHEMERIS_TYPE": 0, "CLASSIFICATION_TYPE": "U", "NORAD_CAT_ID": 66825, "ELEMENT_SET_NO": 999, "REV_AT_EPOCH": 370, "BSTAR": -0.032146803, "MEAN_MOTION_DOT": -0.02073943, "MEAN_MOTION_DDOT": 0}, "tle": {"line1": "1 66825U 25280E   25352.66667824 -.02073943  00000+0 -32147-1 0  9993", "line2": "2 66825  69.9994 182.1829 0003821 268.8155  94.7891 15.56930885  3703"}}, "geometry": {"type": "Point", "coordinates": [172.73509567030794, -22.265145699900838]}}, {"type": "Feature", "properties": {"norad_id": 66826, "name": "STARLINK-35898", "group": "last-30-days", "lat": -20.481907169971716, "lon": 173.48919357175978, "alt_km": 404.6071164046507, "timestamp": "2025-12-18T23:35:47.782025+00:00", "meta": {"OBJECT_NAME": "STARLINK-35898", "OBJECT_ID": "2025-280F", "EPOCH": "2025-12-18T14:00:03.000384", "MEAN_MOTION": 15.57279497, "ECCENTRICITY": 0.00033478, "INCLINATION": 69.9994, "RA_OF_ASC_NODE": 182.4098, "ARG_OF_PERICENTER": 265.4374, "MEAN_ANOMALY": 353.231, "EPHEMERIS_TYPE": 0, "CLASSIFICATION_TYPE": "U", "NORAD_CAT_ID": 66826, "ELEMENT_SET_NO": 999, "REV_AT_EPOCH": 383, "BSTAR": -0.030959735, "MEAN_MOTION_DOT": -0.0199156, "MEAN_MOTION_DDOT": 0}, "tle": {"line1": "1 66826U 25280F   25352.58336806 -.01991560  00000+0 -30960-1 0  9992", "line2": "2 66826  69.9994 182.4098 0003347 265.4374 353.2310 15.57279497  3833"}}, "geometry": {"type": "Point", "coordinates": [173.48919357175978, -20.481907169971716]}}]}